norad_id,name,regime,epoch,line1,line2,inclination,eccentricity,mean_motion,raan,arg_pericenter,mean_anomaly
43015,MIRATA,LEO,23095.23337171,1 43015U 17073C   23095.23337171  .00016481  00000-0  10760-2 0  6697,2 43015  97.6436 345.2096 0216444 298.0166  59.9306 14.90627966290612,97.6436,0.0216444,14.90627966,345.2096,298.0166,59.9306
43015,MIRATA,LEO,23095.56900368,1 43015U 17073C   23095.56900368  .00015257  00000-0  99654-3 0    17,2 43015  97.6435 345.5349 0216389 296.8942  61.0308 14.90637196290668,97.6435,0.0216389,14.90637196,345.5349,296.8942,61.0308
43015,MIRATA,LEO,23095.63612986,1 43015U 17073C   23095.63612986  .00015051  00000-0  98319-3 0    10,2 43015  97.6435 345.5999 0216370 296.6697  61.2511 14.90639179290676,97.6435,0.021637,14.90639179,345.5999,296.6697,61.2511
43015,MIRATA,LEO,23096.24026042,1 43015U 17073C   23096.24026042  .00015320  00000-0  10007-2 0    16,2 43015  97.6430 346.1856 0216214 294.6436  63.2400 14.90659026290768,97.643,0.0216214,14.90659026,346.1856,294.6436,63.24
43015,MIRATA,LEO,23096.91150894,1 43015U 17073C   23096.91150894  .00014150  00000-0  92472-3 0    10,2 43015  97.6427 346.8360 0216102 292.3988  65.4463 14.90677868290862,97.6427,0.0216102,14.90677868,346.836,292.3988,65.4463
43015,MIRATA,LEO,23097.24712977,1 43015U 17073C   23097.24712977  .00015390  00000-0  10050-2 0  6714,2 43015  97.6427 347.1611 0216053 291.2801  66.5471 14.90690049290915,97.6427,0.0216053,14.90690049,347.1611,291.2801,66.5471
43015,MIRATA,LEO,23097.38137763,1 43015U 17073C   23097.38137763  .00015087  00000-0  98540-3 0    14,2 43015  97.6427 347.2911 0216027 290.8332  66.9871 14.90693598290936,97.6427,0.0216027,14.90693598,347.2911,290.8332,66.9871
43015,MIRATA,LEO,23098.25397997,1 43015U 17073C   23098.25397997  .00013116  00000-0  85715-3 0    19,2 43015  97.6422 348.1367 0215948 287.9061  69.8718 14.90717730291065,97.6422,0.0215948,14.9071773,348.1367,287.9061,69.8718
43015,MIRATA,LEO,23099.46217748,1 43015U 17073C   23099.46217748  .00010735  00000-0  70218-3 0    14,2 43015  97.6419 349.3072 0215920 283.8676  73.8607 14.90747832291242,97.6419,0.021592,14.90747832,349.3072,283.8676,73.8607
43015,MIRATA,LEO,23099.93202624,1 43015U 17073C   23099.93202624  .00011489  00000-0  75081-3 0    13,2 43015  97.6418 349.7623 0215904 282.2999  75.4124 14.90760067291315,97.6418,0.0215904,14.90760067,349.7623,282.2999,75.4124
43015,MIRATA,LEO,23100.26763046,1 43015U 17073C   23100.26763046  .00012305  00000-0  80350-3 0    15,2 43015  97.6416 350.0875 0215900 281.1713  76.5304 14.90769386291365,97.6416,0.02159,14.90769386,350.0875,281.1713,76.5304
43015,MIRATA,LEO,23101.20731124,1 43015U 17073C   23101.20731124  .00012457  00000-0  81283-3 0  6742,2 43015  97.6412 350.9978 0215867 278.0181  79.6595 14.90795625291507,97.6412,0.0215867,14.90795625,350.9978,278.0181,79.6595
43015,MIRATA,LEO,23101.27443078,1 43015U 17073C   23101.27443078  .00012460  00000-0  81299-3 0    12,2 43015  97.6412 351.0629 0215865 277.7948  79.8813 14.90797416291513,97.6412,0.0215865,14.90797416,351.0629,277.7948,79.8813
43015,MIRATA,LEO,23101.94562162,1 43015U 17073C   23101.94562162  .00012615  00000-0  82275-3 0    19,2 43015  97.6411 351.7132 0215808 275.5436  82.1206 14.90815832291610,97.6411,0.0215808,14.90815832,351.7132,275.5436,82.1206
43015,MIRATA,LEO,23102.21409542,1 43015U 17073C   23102.21409542  .00012338  00000-0  80473-3 0  6759,2 43015  97.6410 351.9733 0215778 274.6409  83.0196 14.90823769291654,97.641,0.0215778,14.90823769,351.9733,274.6409,83.0196
43015,MIRATA,LEO,23102.48256854,1 43015U 17073C   23102.48256854  .00012346  00000-0  80517-3 0    15,2 43015  97.6411 352.2334 0215752 273.7396  83.9177 14.90830604291691,97.6411,0.0215752,14.90830604,352.2334,273.7396,83.9177
43015,MIRATA,LEO,23103.22086301,1 43015U 17073C   23103.22086301  .00013510  00000-0  88038-3 0  6764,2 43015  97.6411 352.9486 0215627 271.2575  86.3951 14.90852266291807,97.6411,0.0215627,14.90852266,352.9486,271.2575,86.3951
43015,MIRATA,LEO,23104.22761270,1 43015U 17073C   23104.22761270  .00015098  00000-0  98289-3 0    14,2 43015  97.6412 353.9242 0215453 267.8742  89.7793 14.90882857291959,97.6412,0.0215453,14.90882857,353.9242,267.8742,89.7793
43015,MIRATA,LEO,23105.23434184,1 43015U 17073C   23105.23434184  .00017416  00000-0  11324-2 0  6787,2 43015  97.6415 354.8998 0215270 264.4920  93.1712 14.90918216292105,97.6415,0.021527,14.90918216,354.8998,264.492,93.1712
43015,MIRATA,LEO,23105.50279914,1 43015U 17073C   23105.50279914  .00017938  00000-0  11660-2 0    17,2 43015  97.6417 355.1601 0215229 263.5881  94.0790 14.90928044292142,97.6417,0.0215229,14.90928044,355.1601,263.5881,94.079
43015,MIRATA,LEO,23105.63702714,1 43015U 17073C   23105.63702714  .00017698  00000-0  11504-2 0    10,2 43015  97.6418 355.2901 0215209 263.1383  94.5310 14.90932915292165,97.6418,0.0215209,14.90932915,355.2901,263.1383,94.531
43015,MIRATA,LEO,23106.50949772,1 43015U 17073C   23106.50949772  .00018126  00000-0  11776-2 0    12,2 43015  97.6421 356.1357 0215058 260.2070  97.4806 14.90966560292296,97.6421,0.0215058,14.9096656,356.1357,260.207,97.4806
43015,MIRATA,LEO,23106.91217051,1 43015U 17073C   23106.91217051  .00017784  00000-0  11553-2 0    17,2 43015  97.6422 356.5259 0215004 258.8602  98.8377 14.90981110292350,97.6422,0.0215004,14.9098111,356.5259,258.8602,98.8377
43015,MIRATA,LEO,23107.24772808,1 43015U 17073C   23107.24772808  .00017666  00000-0  11474-2 0  6804,2 43015  97.6424 356.8511 0214975 257.7429  99.9644 14.90994000292404,97.6424,0.0214975,14.90994,356.8511,257.7429,99.9644
43015,MIRATA,LEO,23107.58328346,1 43015U 17073C   23107.58328346  .00017415  00000-0  11309-2 0    11,2 43015  97.6425 357.1764 0214951 256.6191 101.0986 14.91005628292456,97.6425,0.0214951,14.91005628,357.1764,256.6191,101.0986
43015,MIRATA,LEO,23107.65039432,1 43015U 17073C   23107.65039432  .00017179  00000-0  11156-2 0    11,2 43015  97.6425 357.2415 0214945 256.3937 101.3261 14.91007749292464,97.6425,0.0214945,14.91007749,357.2415,256.3937,101.3261
43015,MIRATA,LEO,23108.25438692,1 43015U 17073C   23108.25438692  .00015927  00000-0  10343-2 0  6819,2 43015  97.6424 357.8270 0214928 254.3778 103.3630 14.91027153292553,97.6424,0.0214928,14.91027153,357.827,254.3778,103.363
43015,MIRATA,LEO,23108.45571637,1 43015U 17073C   23108.45571637  .00015551  00000-0  10099-2 0    15,2 43015  97.6423 358.0221 0214918 253.6951 104.0536 14.91032913292581,97.6423,0.0214918,14.91032913,358.0221,253.6951,104.0536
43015,MIRATA,LEO,23108.65704480,1 43015U 17073C   23108.65704480  .00015520  00000-0  10077-2 0    13,2 43015  97.6424 358.2173 0214923 253.0251 104.7314 14.91039917292619,97.6424,0.0214923,14.91039917,358.2173,253.0251,104.7314
43015,MIRATA,LEO,23109.52945873,1 43015U 17073C   23109.52945873  .00015072  00000-0  97800-3 0    15,2 43015  97.6419 359.0632 0214922 250.1117 107.6830 14.91067381292745,97.6419,0.0214922,14.91067381,359.0632,250.1117,107.683
43015,MIRATA,LEO,23109.93210566,1 43015U 17073C   23109.93210566  .00017310  00000-0  11217-2 0    18,2 43015  97.6416 359.4536 0214911 248.7655 109.0489 14.91083438292801,97.6416,0.0214911,14.91083438,359.4536,248.7655,109.0489
43015,MIRATA,LEO,23110.26764242,1 43015U 17073C   23110.26764242  .00013973  00000-0  90648-3 0    18,2 43015  97.6413 359.7789 0214929 247.6463 110.1853 14.91091096292857,97.6413,0.0214929,14.91091096,359.7789,247.6463,110.1853
43015,MIRATA,LEO,23110.60317751,1 43015U 17073C   23110.60317751  .00013385  00000-0  86836-3 0  6832,2 43015  97.6411   0.1041 0214934 246.5236 111.3263 14.91100604292905,97.6411,0.0214934,14.91100604,0.1041,246.5236,111.3263
43015,MIRATA,LEO,23110.93871066,1 43015U 17073C   23110.93871066  .00013391  00000-0  86847-3 0    15,2 43015  97.6409   0.4294 0214931 245.4014 112.4677 14.91109797292952,97.6409,0.0214931,14.91109797,0.4294,245.4014,112.4677
43015,MIRATA,LEO,23111.20713591,1 43015U 17073C   23111.20713591  .00011989  00000-0  77803-3 0    17,2 43015  97.6406   0.6895 0214939 244.4994 113.3856 14.91115735292994,97.6406,0.0214939,14.91115735,0.6895,244.4994,113.3856
43015,MIRATA,LEO,23111.94530042,1 43015U 17073C   23111.94530042  .00013316  00000-0  86311-3 0    16,2 43015  97.6401   1.4050 0214911 242.0229 115.9094 14.91134840293100,97.6401,0.0214911,14.9113484,1.405,242.0229,115.9094
43015,MIRATA,LEO,23112.14661626,1 43015U 17073C   23112.14661626  .00013439  00000-0  87084-3 0    16,2 43015  97.6400   1.6001 0214912 241.3495 116.5963 14.91140648293133,97.64,0.0214912,14.91140648,1.6001,241.3495,116.5963
43015,MIRATA,LEO,23112.95187376,1 43015U 17073C   23112.95187376  .00011949  00000-0  77463-3 0    14,2 43015  97.6397   2.3806 0214881 238.6406 119.3630 14.91159811293252,97.6397,0.0214881,14.91159811,2.3806,238.6406,119.363
43015,MIRATA,LEO,23113.69001740,1 43015U 17073C   23113.69001740  .00013221  00000-0  85614-3 0    18,2 43015  97.6392   3.0957 0214819 236.1534 121.9077 14.91180755293365,97.6392,0.0214819,14.91180755,3.0957,236.1534,121.9077
43015,MIRATA,LEO,23114.09263536,1 43015U 17073C   23114.09263536  .00019549  00000-0  12623-2 0    14,2 43015  97.6394   3.4860 0214734 234.7943 123.3005 14.91201164293420,97.6394,0.0214734,14.91201164,3.486,234.7943,123.3005
43015,MIRATA,LEO,23115.16625326,1 43015U 17073C   23115.16625326  .00015207  00000-0  98253-3 0  6873,2 43015  97.6393   4.5260 0214565 231.1664 127.0232 14.91258118293589,97.6393,0.0214565,14.91258118,4.526,231.1664,127.0232
43015,MIRATA,LEO,23115.50175427,1 43015U 17073C   23115.50175427  .00012559  00000-0  81252-3 0    11,2 43015  97.6394   4.8516 0214541 230.0474 128.1728 14.91262301293635,97.6394,0.0214541,14.91262301,4.8516,230.0474,128.1728
43015,MIRATA,LEO,23116.23984998,1 43015U 17073C   23116.23984998  .00010565  00000-0  68422-3 0    12,2 43015  97.6395   5.5670 0214502 227.5668 130.7236 14.91279479293747,97.6395,0.0214502,14.91279479,5.567,227.5668,130.7236
